NORAD_CAT_ID,OBJECT_NAME,OBJECT_TYPE,EPOCH,MEAN_MOTION,ECCENTRICITY,INCLINATION,RA_OF_ASC_NODE,ARG_OF_PERICENTER,MEAN_ANOMALY,BSTAR,MEAN_MOTION_DOT,MEAN_MOTION_DDOT,TLE_LINE0,TLE_LINE1,TLE_LINE2,SEMIMAJOR_AXIS,PERIOD,APOGEE,PERIGEE,DECAYED
55767.0,STARLINK-5606,PAYLOAD,2024-03-10 20:07:03,14.9834552,0.000346,70.0004,262.3315,271.4626,88.6136,6.8603e-05,7.26e-06,0.0,0 STARLINK-5606,1 55767U 23028AC  24070.83823918  .00000726  00000-0  68603-4 0  9992,2 55767  70.0004 262.3315 0003460 271.4626  88.6136 14.98345520 57348,6950.145,96.106,574.415,569.605,0.0
55767.0,STARLINK-5606,PAYLOAD,2024-03-10 21:43:11,14.98344288,0.0003213,69.9994,262.1625,271.8119,88.2672,6.5209e-05,6.85e-06,0.0,0 STARLINK-5606,1 55767U 23028AC  24070.90499893  .00000685  00000-0  65209-4 0  9994,2 55767  69.9994 262.1625 0003213 271.8119  88.2672 14.98344288 57365,6950.149,96.106,574.247,569.781,0.0
55767.0,STARLINK-5606,PAYLOAD,2024-03-10 23:19:19,14.98345812,0.000312,69.9996,261.9942,271.7123,88.3679,8.0978e-05,8.74e-06,0.0,0 STARLINK-5606,1 55767U 23028AC  24070.97175707  .00000874  00000-0  80978-4 0  9996,2 55767  69.9996 261.9942 0003120 271.7123  88.3679 14.98345812 57370,6950.144,96.106,574.177,569.841,0.0
55767.0,STARLINK-5606,PAYLOAD,2024-03-13 12:12:26,14.98333442,0.0003265,69.9978,255.5966,266.7856,93.2929,-2.5987e-05,-4.03e-06,0.0,0 STARLINK-5606,1 55767U 23028AC  24073.50863564 -.00000403  00000-0 -25987-4 0  9992,2 55767  69.9978 255.5966 0003265 266.7856  93.2929 14.98333442 57742,6950.182,96.107,574.316,569.778,0.0
55767.0,STARLINK-5606,PAYLOAD,2024-03-13 21:49:14,14.9833152,0.0003054,70.0004,254.5872,269.4137,90.6672,-1.1899e-06,-1.07e-06,0.0,0 STARLINK-5606,1 55767U 23028AC  24073.90919539 -.00000107  00000-0 -11899-5 0  9999,2 55767  70.0004 254.5872 0003054 269.4137  90.6672 14.98331520 57817,6950.188,96.107,574.176,569.931,0.0
55767.0,STARLINK-5606,PAYLOAD,2024-03-14 05:49:55,14.98322398,0.0002848,70.0004,253.7457,269.4654,90.6178,-8.1343e-05,-1.063e-05,0.0,0 STARLINK-5606,1 55767U 23028AC  24074.24300401 -.00001063  00000-0 -81343-4 0  9991,2 55767  70.0004 253.7457 0002848 269.4654  90.6178 14.98322398 57860,6950.216,96.107,574.061,570.102,0.0
55767.0,STARLINK-5606,PAYLOAD,2024-03-14 12:14:27,14.98326806,0.0003576,69.9971,253.0706,262.9153,97.16,-8.0717e-05,-1.056e-05,0.0,0 STARLINK-5606,1 55767U 23028AC  24074.51003966 -.00001056  00000-0 -80717-4 0  9993,2 55767  69.9971 253.0706 0003576 262.9153  97.1600 14.98326806 57894,6950.203,96.107,574.553,569.582,0.0
55767.0,STARLINK-5606,PAYLOAD,2024-03-14 20:15:06,14.98336566,0.0003041,70.0,252.2306,269.4159,90.6651,5.6104e-05,5.77e-06,0.0,0 STARLINK-5606,1 55767U 23028AC  24074.84382996  .00000577  00000-0  56104-4 0  9990,2 55767  70.0000 252.2306 0003041 269.4159  90.6651 14.98336566 57946,6950.173,96.107,574.151,569.924,0.0
55767.0,STARLINK-5606,PAYLOAD,2024-03-14 21:51:14,14.98336639,0.0003048,70.0001,252.0624,269.7922,90.2888,6.236e-05,6.51e-06,0.0,0 STARLINK-5606,1 55767U 23028AC  24074.91058942  .00000651  00000-0  62360-4 0  9993,2 55767  70.0001 252.0624 0003048 269.7922  90.2888 14.98336639 57967,6950.172,96.107,574.156,569.919,0.0
55767.0,STARLINK-5606,PAYLOAD,2024-03-15 12:16:27,14.98332354,0.0002946,70.0006,250.5476,271.0107,89.0715,7.3018e-06,-6e-08,0.0,0 STARLINK-5606,1 55767U 23028AC  24075.51143242 -.00000006  00000-0  73018-5 0  9996,2 55767  70.0006 250.5476 0002946 271.0107  89.0715 14.98332354 58042,6950.186,96.107,574.098,570.003,0.0
55767.0,STARLINK-5606,PAYLOAD,2024-03-15 21:53:15,14.98335933,0.0002896,70.0007,249.5373,270.91,89.1727,4.6608e-05,4.63e-06,0.0,0 STARLINK-5606,1 55767U 23028AC  24075.91198791  .00000463  00000-0  46608-4 0  9999,2 55767  70.0007 249.5373 0002896 270.9100  89.1727 14.98335933 58110,6950.175,96.107,574.052,570.027,0.0
55767.0,STARLINK-5606,PAYLOAD,2024-03-16 12:18:28,14.98333362,0.0002709,70.0009,248.0225,273.177,86.9079,-8.8483e-05,-1.149e-05,0.0,0 STARLINK-5606,1 55767U 23028AC  24076.51283316 -.00001149  00000-0 -88483-4 0  9995,2 55767  70.0009 248.0225 0002709 273.1770  86.9079 14.98333362 58190,6950.182,96.107,573.93,570.165,0.0
55767.0,STARLINK-5606,PAYLOAD,2024-03-16 13:54:36,14.9833254,0.0002719,70.0007,247.8544,274.0643,86.0205,-9.2974e-05,-1.202e-05,0.0,0 STARLINK-5606,1 55767U 23028AC  24076.57959369 -.00001202  00000-0 -92974-4 0  9999,2 55767  70.0007 247.8544 0002719 274.0643  86.0205 14.98332540 58211,6950.185,96.107,573.94,570.16,0.0
55767.0,STARLINK-5606,PAYLOAD,2024-03-16 21:55:17,14.98328165,0.0002842,70.0003,247.0121,262.7799,97.3037,-0.00011092,-1.416e-05,0.0,0 STARLINK-5606,1 55767U 23028AC  24076.91339585 -.00001416  00000-0 -11092-3 0  9997,2 55767  70.0003 247.0121 0002842 262.7799  97.3037 14.98328165 58264,6950.199,96.107,574.039,570.088,0.0
55767.0,STARLINK-5606,PAYLOAD,2024-03-17 12:20:29,14.98332028,0.0002893,70.0,245.4976,259.2114,100.872,-6.0382e-05,-8.13e-06,0.0,0 STARLINK-5606,1 55767U 23028AC  24077.51423189 -.00000813  00000-0 -60382-4 0  9995,2 55767  70.0000 245.4976 0002893 259.2114 100.8720 14.98332028 58340,6950.187,96.107,574.062,570.041,0.0
55767.0,STARLINK-5606,PAYLOAD,2024-03-17 13:56:37,14.98331895,0.00029,70.0,245.3292,259.2515,100.8318,-6.0888e-05,-8.19e-06,0.0,0 STARLINK-5606,1 55767U 23028AC  24077.58099189 -.00000819  00000-0 -60888-4 0  9998,2 55767  70.0000 245.3292 0002900 259.2515 100.8318 14.98331895 58360,6950.187,96.107,574.068,570.036,0.0
55767.0,STARLINK-5606,PAYLOAD,2024-03-17 21:57:17,14.98332102,0.0002897,70.0002,244.4876,259.4034,100.6799,-4.913e-05,-6.79e-06,0.0,0 STARLINK-5606,1 55767U 23028AC  24077.91479115 -.00000679  00000-0 -49130-4 0  9997,2 55767  70.0002 244.4876 0002897 259.4034 100.6799 14.98332102 58412,6950.186,96.107,574.065,570.038,0.0
55767.0,STARLINK-5606,PAYLOAD,2024-03-18 12:22:30,14.98326282,0.0002955,70.0,242.9723,261.5916,98.4908,4.9176e-05,4.94e-06,0.0,0 STARLINK-5606,1 55767U 23028AC  24078.51563204  .00000494  00000-0  49176-4 0  9990,2 55767  70.0000 242.9723 0002955 261.5916  98.4908 14.98326282 58498,6950.204,96.107,574.123,570.016,0.0
55767.0,STARLINK-5606,PAYLOAD,2024-03-18 20:23:10,14.98326943,0.0002975,70.0,242.1304,263.1883,96.8937,5.0119e-05,5.05e-06,0.0,0 STARLINK-5606,1 55767U 23028AC  24078.84943226  .00000505  00000-0  50119-4 0  9994,2 55767  70.0000 242.1304 0002975 263.1883  96.8937 14.98326943 58553,6950.202,96.107,574.135,570.0,0.0
55767.0,STARLINK-5606,PAYLOAD,2024-03-19 12:24:31,14.98332951,0.0002993,70.0001,240.4473,265.6165,94.4652,4.1278e-05,4e-06,0.0,0 STARLINK-5606,1 55767U 23028AC  24079.51702868  .00000400  00000-0  41278-4 0  9994,2 55767  70.0001 240.4473 0002993 265.6165  94.4652 14.98332951 58657,6950.184,96.107,574.129,569.969,0.0
55767.0,STARLINK-5606,PAYLOAD,2024-03-19 20:25:11,14.98335892,0.0002968,70.0001,239.6059,265.4803,94.6017,7.1374e-05,7.59e-06,0.0,0 STARLINK-5606,1 55767U 23028AC  24079.85082503  .00000759  00000-0  71374-4 0  9995,2 55767  70.0001 239.6059 0002968 265.4803  94.6017 14.98335892 58694,6950.175,96.107,574.102,569.977,0.0
55767.0,STARLINK-5606,PAYLOAD,2024-03-20 10:50:24,14.98328534,0.000263,70.0014,238.0907,266.9829,93.1029,-2.5267e-05,-3.94e-06,0.0,0 STARLINK-5606,1 55767U 23028AC  24080.45167285 -.00000394  00000-0 -25267-4 0  9991,2 55767  70.0014 238.0907 0002630 266.9829  93.1029 14.98328534 58785,6950.197,96.107,573.89,570.235,0.0
55767.0,STARLINK-5606,PAYLOAD,2024-03-20 14:02:40,14.98323894,0.0002796,70.0003,237.7543,265.8002,94.2837,-3.8456e-05,-5.52e-06,0.0,0 STARLINK-5606,1 55767U 23028AC  24080.58519583 -.00000552  00000-0 -38456-4 0  9997,2 55767  70.0003 237.7543 0002796 265.8002  94.2837 14.98323894 58816,6950.212,96.107,574.02,570.133,0.0
55767.0,STARLINK-5606,PAYLOAD,2024-03-20 20:27:13,14.98326344,0.0002754,70.0011,237.0823,267.6589,92.4254,-4.4691e-05,-6.26e-06,0.0,0 STARLINK-5606,1 55767U 23028AC  24080.85223531 -.00000626  00000-0 -44691-4 0  9992,2 55767  70.0011 237.0823 0002754 267.6589  92.4254 14.98326344 58853,6950.204,96.107,573.983,570.155,0.0
55767.0,STARLINK-5606,PAYLOAD,2024-03-21 12:28:33,14.9833241,0.0002666,70.0009,235.3988,265.0705,95.0149,-2.2481e-05,-3.61e-06,0.0,0 STARLINK-5606,1 55767U 23028AC  24081.51983052 -.00000361  00000-0 -22481-4 0  9996,2 55767  70.0009 235.3988 0002666 265.0705  95.0149 14.98332410 58940,6950.185,96.107,573.903,570.198,0.0
55767.0,STARLINK-5606,PAYLOAD,2024-03-21 14:04:41,14.98332078,0.0002674,70.0008,235.2306,264.8996,95.1858,-2.629e-05,-4.07e-06,0.0,0 STARLINK-5606,1 55767U 23028AC  24081.58659073 -.00000407  00000-0 -26290-4 0  9999,2 55767  70.0008 235.2306 0002674 264.8996  95.1858 14.98332078 58960,6950.186,96.107,573.91,570.193,0.0
55767.0,STARLINK-5606,PAYLOAD,2024-03-21 20:29:13,14.98324573,0.0002795,70.0009,234.5592,264.8472,95.2369,0.00021108,2.426e-05,0.0,0 STARLINK-5606,1 55767U 23028AC  24081.85362964  .00002426  00000-0  21108-3 0  9992,2 55767  70.0009 234.5592 0002795 264.8472  95.2369 14.98324573 59008,6950.21,96.107,574.017,570.132,0.0
55767.0,STARLINK-5606,PAYLOAD,2024-03-22 12:30:33,14.98381858,0.0002938,70.0013,232.8747,264.3338,95.7486,-0.00080113,-9.652e-05,0.0,0 STARLINK-5606,1 55767U 23028AC  24082.52122324 -.00009652  00000-0 -80113-3 0  9992,2 55767  70.0013 232.8747 0002938 264.3338  95.7486 14.98381858 59094,6950.033,96.104,573.939,569.856,0.0
55767.0,STARLINK-5606,PAYLOAD,2024-03-22 14:06:42,14.98328461,0.0002542,70.0014,232.7064,261.4177,98.6694,6.3819e-05,6.69e-06,0.0,0 STARLINK-5606,1 55767U 23028AC  24082.58798881  .00000669  00000-0  63819-4 0  9997,2 55767  70.0014 232.7064 0002542 261.4177  98.6694 14.98328461 59113,6950.198,96.107,573.829,570.296,0.0
55767.0,STARLINK-5606,PAYLOAD,2024-03-22 20:31:14,14.98328778,0.0002566,70.0016,232.0326,260.2794,99.8075,8.2185e-05,8.88e-06,0.0,0 STARLINK-5606,1 55767U 23028AC  24082.85502824  .00000888  00000-0  82185-4 0  9997,2 55767  70.0016 232.0326 0002566 260.2794  99.8075 14.98328778 59147,6950.197,96.107,573.845,570.278,0.0
